[{"OBJECT_NAME":"POLYITAN-1","OBJECT_ID":"2014-033AJ","EPOCH":"2026-03-09T22:27:50.258304","MEAN_MOTION":15.29568085,"ECCENTRICITY":0.00093607,"INCLINATION":98.1053,"RA_OF_ASC_NODE":86.0432,"ARG_OF_PERICENTER":127.248,"MEAN_ANOMALY":232.9614,"EPHEMERIS_TYPE":0,"CLASSIFICATION_TYPE":"U","NORAD_CAT_ID":40042,"ELEMENT_SET_NO":999,"REV_AT_EPOCH":63840,"BSTAR":0.00083772474,"MEAN_MOTION_DOT":0.00024003,"MEAN_MOTION_DDOT":0},{"OBJECT_NAME":"STARLINK-31739","OBJECT_ID":"2024-091P","EPOCH":"2026-03-09T06:48:48.169440","MEAN_MOTION":15.30194066,"ECCENTRICITY":0.0001211,"INCLINATION":53.1623,"RA_OF_ASC_NODE":25.8419,"ARG_OF_PERICENTER":82.7777,"MEAN_ANOMALY":277.3361,"EPHEMERIS_TYPE":0,"CLASSIFICATION_TYPE":"U","NORAD_CAT_ID":59766,"ELEMENT_SET_NO":999,"REV_AT_EPOCH":10298,"BSTAR":-2.3420707e-5,"MEAN_MOTION_DOT":-1.053e-5,"MEAN_MOTION_DDOT":0}]
